[
    {
        "Altitude(m)": 605470.7498030133,
        "Argument of Periapsis(deg)": 0.0,
        "Eccentricity": 0.0,
        "Inclination(deg)": 60.0,
        "Latitude(deg)": 27.988075636201295,
        "Longitude(deg)": -142.73701100835407,
        "Mean Anomaly(deg)": 147.27269999999996,
        "RAAN(deg)": 155.0,
        "Satellite Name": "Test1 691",
        "Satellite Number": 691,
        "Semi-Major Axis(m)": 6980739.136638005,
        "Time(s)": 0
    },
    {
        "Altitude(m)": 605395.7880323639,
        "Argument of Periapsis(deg)": 0.00010418945913296404,
        "Eccentricity": 0.0,
        "Inclination(deg)": 60.0,
        "Latitude(deg)": 27.47376583216789,
        "Longitude(deg)": -142.38382454945923,
        "Mean Anomaly(deg)": 147.8928061454618,
        "RAAN(deg)": 154.99957995086027,
        "Satellite Name": "Test1 691",
        "Satellite Number": 691,
        "Semi-Major Axis(m)": 6980739.136638005,
        "Time(s)": 10
    }
]